Date__(UT)__HR:MN     R.A._(ICRF/J2000.0)_DEC  APmag  S-brt Ob-lon Ob-lat            delta      deldot    S-O-T /r    S-T-O
****************************************************************************************************************************
$$SOE
 2016-Feb-05 00:00 21 11 22.77 -16 13 24.3 -26.77 -10.59 173.41  -6.25 0.98587745087050   0.2603022   0.0000 /?   0.0000
 2016-Feb-06 00:00 21 15 24.63 -15 55 19.4 -26.77 -10.59 160.25  -6.32 0.98603746725094   0.2659604   0.0000 /?   0.0000
 2016-Feb-07 00:00 21 19 25.70 -15 36 57.9 -26.77 -10.59 147.08  -6.38 0.98620056323579   0.2711491   0.0000 /?   0.0000
 2016-Feb-08 00:00 21 23 25.97 -15 18 20.5 -26.77 -10.59 133.92  -6.44 0.98636650002205   0.2759522   0.0000 /?   0.0000
 2016-Feb-09 00:00 21 27 25.44 -14 59 27.5 -26.77 -10.59 120.75  -6.50 0.98653509888769   0.2804934   0.0000 /?   0.0000
 2016-Feb-10 00:00 21 31 24.13 -14 40 19.3 -26.77 -10.59 107.58  -6.55 0.98670626256594   0.2849288   0.0000 /?   0.0000
 2016-Feb-11 00:00 21 35 22.02 -14 20 56.3 -26.77 -10.59  94.42  -6.61 0.98687998909824   0.2894286   0.0000 /?   0.0000
 2016-Feb-12 00:00 21 39 19.13 -14 01 19.1 -26.77 -10.59  81.25  -6.66 0.98705637323781   0.2941534   0.0000 /?   0.0000
 2016-Feb-13 00:00 21 43 15.45 -13 41 28.0 -26.77 -10.59  68.08  -6.71 0.98723559417947   0.2992321   0.0000 /?   0.0000
 2016-Feb-14 00:00 21 47 11.00 -13 21 23.5 -26.77 -10.59  54.91  -6.76 0.98741789277626   0.3047481   0.0000 /?   0.0000
 2016-Feb-15 00:00 21 51 05.78 -13 01 06.0 -26.77 -10.59  41.75  -6.80 0.98760354402993   0.3107367   0.0000 /?   0.0000
 2016-Feb-16 00:00 21 54 59.81 -12 40 35.9 -26.77 -10.59  28.58  -6.84 0.98779283046356   0.3171905   0.0000 /?   0.0000
 2016-Feb-17 00:00 21 58 53.09 -12 19 53.6 -26.77 -10.59  15.41  -6.89 0.98798601987520   0.3240679   0.0000 /?   0.0000
 2016-Feb-18 00:00 22 02 45.64 -11 58 59.6 -26.77 -10.59   2.24  -6.92 0.98818334858135   0.3313034   0.0000 /?   0.0000
 2016-Feb-19 00:00 22 06 37.48 -11 37 54.1 -26.77 -10.59 349.07  -6.96 0.98838500970547   0.3388148   0.0000 /?   0.0000
 2016-Feb-20 00:00 22 10 28.62 -11 16 37.8 -26.77 -10.59 335.90  -7.00 0.98859114555568   0.3465099   0.0000 /?   0.0000
 2016-Feb-21 00:00 22 14 19.08 -10 55 10.8 -26.77 -10.59 322.74  -7.03 0.98880184329634   0.3542915   0.0000 /?   0.0000
 2016-Feb-22 00:00 22 18 08.87 -10 33 33.7 -26.77 -10.59 309.57  -7.06 0.98901713346670   0.3620623   0.0000 /?   0.0000
 2016-Feb-23 00:00 22 21 58.02 -10 11 46.8 -26.77 -10.59 296.40  -7.09 0.98923699110104   0.3697287   0.0000 /?   0.0000
 2016-Feb-24 00:00 22 25 46.55 -09 49 50.6 -26.77 -10.59 283.22  -7.11 0.98946133914896   0.3772053   0.0000 /?   0.0000
 2016-Feb-25 00:00 22 29 34.47 -09 27 45.4 -26.76 -10.59 270.05  -7.14 0.98969005365393   0.3844163   0.0000 /?   0.0000
 2016-Feb-26 00:00 22 33 21.80 -09 05 31.5 -26.76 -10.59 256.88  -7.16 0.98992296989054   0.3912972   0.0000 /?   0.0000
 2016-Feb-27 00:00 22 37 08.56 -08 43 09.5 -26.76 -10.59 243.71  -7.18 0.99015988853873   0.3977933   0.0000 /?   0.0000
 2016-Feb-28 00:00 22 40 54.78 -08 20 39.7 -26.76 -10.59 230.54  -7.19 0.99040058105380   0.4038586   0.0000 /?   0.0000
 2016-Feb-29 00:00 22 44 40.47 -07 58 02.5 -26.76 -10.59 217.37  -7.21 0.99064479365563   0.4094522   0.0000 /?   0.0000
 2016-Mar-01 00:00 22 48 25.65 -07 35 18.2 -26.76 -10.59 204.19  -7.22 0.99089224974722   0.4145364   0.0000 /?   0.0000
 2016-Mar-02 00:00 22 52 10.33 -07 12 27.4 -26.76 -10.59 191.02  -7.23 0.99114265102580   0.4190746   0.0000 /?   0.0000
 2016-Mar-03 00:00 22 55 54.55 -06 49 30.3 -26.76 -10.59 177.85  -7.24 0.99139567805684   0.4230314   0.0000 /?   0.0000
 2016-Mar-04 00:00 22 59 38.31 -06 26 27.3 -26.76 -10.59 164.67  -7.25 0.99165099164186   0.4263754   0.0000 /?   0.0000
 2016-Mar-05 00:00 23 03 21.64 -06 03 18.9 -26.76 -10.59 151.50  -7.25 0.99190823688679   0.4290859   0.0000 /?   0.0000
 2016-Mar-06 00:00 23 07 04.55 -05 40 05.5 -26.76 -10.59 138.33  -7.25 0.99216705227543   0.4311637   0.0000 /?   0.0000
 2016-Mar-07 00:00 23 10 47.06 -05 16 47.4 -26.76 -10.59 125.15  -7.25 0.99242708583666   0.4326443   0.0000 /?   0.0000
 2016-Mar-08 00:00 23 14 29.19 -04 53 25.0 -26.76 -10.59 111.98  -7.25 0.99268801904563   0.4336106   0.0000 /?   0.0000
 2016-Mar-09 00:00 23 18 10.95 -04 29 58.8 -26.76 -10.59  98.80  -7.24 0.99294959606765   0.4341973   0.0000 /?   0.0000
 2016-Mar-10 00:00 23 21 52.35 -04 06 29.1 -26.76 -10.59  85.62  -7.23 0.99321165207957   0.4345828   0.0000 /?   0.0000
 2016-Mar-11 00:00 23 25 33.41 -03 42 56.4 -26.76 -10.59  72.45  -7.22 0.99347413196300   0.4349644   0.0000 /?   0.0000
 2016-Mar-12 00:00 23 29 14.15 -03 19 21.1 -26.76 -10.59  59.27  -7.21 0.99373709222762   0.4355266   0.0000 /?   0.0000
 2016-Mar-13 00:00 23 32 54.58 -02 55 43.5 -26.76 -10.59  46.09  -7.20 0.99400068479751   0.4364125   0.0000 /?   0.0000
 2016-Mar-14 00:00 23 36 34.72 -02 32 04.1 -26.75 -10.59  32.91  -7.18 0.99426512800167   0.4377087   0.0000 /?   0.0000
 2016-Mar-15 00:00 23 40 14.59 -02 08 23.2 -26.75 -10.59  19.73  -7.16 0.99453067357832   0.4394463   0.0000 /?   0.0000
 2016-Mar-16 00:00 23 43 54.20 -01 44 41.2 -26.75 -10.59   6.55  -7.14 0.99479757736839   0.4416118   0.0000 /?   0.0000
 2016-Mar-17 00:00 23 47 33.58 -01 20 58.5 -26.75 -10.59 353.37  -7.12 0.99506607759839   0.4441611   0.0000 /?   0.0000
 2016-Mar-18 00:00 23 51 12.75 -00 57 15.4 -26.75 -10.59 340.19  -7.09 0.99533638102286   0.4470322   0.0000 /?   0.0000
 2016-Mar-19 00:00 23 54 51.73 -00 33 32.4 -26.75 -10.59 327.00  -7.07 0.99560865518018   0.4501535   0.0000 /?   0.0000
 2016-Mar-20 00:00 23 58 30.54 -00 09 49.7 -26.75 -10.59 313.82  -7.04 0.99588302457702   0.4534494   0.0000 /?   0.0000
 2016-Mar-21 00:00 00 02 09.21 +00 13 52.3 -26.75 -10.59 300.64  -7.01 0.99615956907472   0.4568424   0.0000 /?   0.0000
 2016-Mar-22 00:00 00 05 47.77 +00 37 33.3 -26.75 -10.59 287.45  -6.97 0.99643832346484   0.4602554   0.0000 /?   0.0000
 2016-Mar-23 00:00 00 09 26.22 +01 01 12.9 -26.75 -10.59 274.26  -6.94 0.99671927781890   0.4636120   0.0000 /?   0.0000
 2016-Mar-24 00:00 00 13 04.61 +01 24 50.7 -26.75 -10.59 261.08  -6.90 0.99700237853588   0.4668388   0.0000 /?   0.0000
 2016-Mar-25 00:00 00 16 42.95 +01 48 26.4 -26.75 -10.59 247.89  -6.86 0.99728753009006   0.4698654   0.0000 /?   0.0000
 2016-Mar-26 00:00 00 20 21.26 +02 11 59.7 -26.75 -10.59 234.70  -6.82 0.99757459737900   0.4726264   0.0000 /?   0.0000
 2016-Mar-27 00:00 00 23 59.57 +02 35 30.2 -26.75 -10.59 221.51  -6.78 0.99786340839886   0.4750607   0.0000 /?   0.0000
 2016-Mar-28 00:00 00 27 37.90 +02 58 57.6 -26.75 -10.59 208.32  -6.73 0.99815375684011   0.4771115   0.0000 /?   0.0000
 2016-Mar-29 00:00 00 31 16.27 +03 22 21.5 -26.75 -10.59 195.13  -6.68 0.99844540418116   0.4787249   0.0000 /?   0.0000
 2016-Mar-30 00:00 00 34 54.71 +03 45 41.7 -26.74 -10.59 181.94  -6.63 0.99873808100010   0.4798488   0.0000 /?   0.0000
 2016-Mar-31 00:00 00 38 33.23 +04 08 57.7 -26.74 -10.59 168.75  -6.58 0.99903148754197   0.4804313   0.0000 /?   0.0000
 2016-Apr-01 00:00 00 42 11.86 +04 32 09.2 -26.74 -10.59 155.56  -6.53 0.99932529407471   0.4804216   0.0000 /?   0.0000
 2016-Apr-02 00:00 00 45 50.61 +04 55 15.9 -26.74 -10.59 142.37  -6.47 0.99961914223699   0.4797733   0.0000 /?   0.0000
 2016-Apr-03 00:00 00 49 29.52 +05 18 17.4 -26.74 -10.59 129.17  -6.42 0.99991264935469   0.4784513   0.0000 /?   0.0000
 2016-Apr-04 00:00 00 53 08.58 +05 41 13.4 -26.74 -10.59 115.98  -6.36 1.00020541833176   0.4764440   0.0000 /?   0.0000
 2016-Apr-05 00:00 00 56 47.82 +06 04 03.5 -26.74 -10.59 102.78  -6.30 1.00049705564591   0.4737788   0.0000 /?   0.0000
 2016-Apr-06 00:00 01 00 27.26 +06 26 47.4 -26.74 -10.59  89.59  -6.23 1.00078719838643   0.4705371   0.0000 /?   0.0000
 2016-Apr-07 00:00 01 04 06.91 +06 49 24.7 -26.74 -10.59  76.39  -6.17 1.00107554765812   0.4668598   0.0000 /?   0.0000
 2016-Apr-08 00:00 01 07 46.78 +07 11 55.0 -26.74 -10.59  63.19  -6.10 1.00136190096680   0.4629370   0.0000 /?   0.0000
 2016-Apr-09 00:00 01 11 26.88 +07 34 18.0 -26.74 -10.59  50.00  -6.03 1.00164617332582   0.4589804   0.0000 /?   0.0000
 2016-Apr-10 00:00 01 15 07.23 +07 56 33.3 -26.74 -10.59  36.80  -5.96 1.00192839900180   0.4551857   0.0000 /?   0.0000
 2016-Apr-11 00:00 01 18 47.83 +08 18 40.5 -26.74 -10.59  23.60  -5.89 1.00220871302774   0.4517026   0.0000 /?   0.0000
 2016-Apr-12 00:00 01 22 28.71 +08 40 39.3 -26.74 -10.59  10.40  -5.82 1.00248731942754   0.4486203   0.0000 /?   0.0000
 2016-Apr-13 00:00 01 26 09.88 +09 02 29.3 -26.74 -10.59 357.20  -5.74 1.00276445650320   0.4459705   0.0000 /?   0.0000
 2016-Apr-14 00:00 01 29 51.34 +09 24 10.3 -26.74 -10.59 343.99  -5.67 1.00304036748065   0.4437419   0.0000 /?   0.0000
 2016-Apr-15 00:00 01 33 33.13 +09 45 41.8 -26.73 -10.59 330.79  -5.59 1.00331528013878   0.4418956   0.0000 /?   0.0000
 2016-Apr-16 00:00 01 37 15.25 +10 07 03.5 -26.73 -10.59 317.58  -5.51 1.00358939502969   0.4403786   0.0000 /?   0.0000
 2016-Apr-17 00:00 01 40 57.72 +10 28 15.0 -26.73 -10.59 304.38  -5.43 1.00386287990997   0.4391321   0.0000 /?   0.0000
 2016-Apr-18 00:00 01 44 40.55 +10 49 16.2 -26.73 -10.59 291.17  -5.34 1.00413586773167   0.4380954   0.0000 /?   0.0000
 2016-Apr-19 00:00 01 48 23.77 +11 10 06.6 -26.73 -10.59 277.97  -5.26 1.00440845614193   0.4372075   0.0000 /?   0.0000
 2016-Apr-20 00:00 01 52 07.39 +11 30 45.9 -26.73 -10.59 264.76  -5.17 1.00468070725438   0.4364071   0.0000 /?   0.0000
 2016-Apr-21 00:00 01 55 51.43 +11 51 13.7 -26.73 -10.59 251.55  -5.09 1.00495264715803   0.4356313   0.0000 /?   0.0000
 2016-Apr-22 00:00 01 59 35.89 +12 11 29.9 -26.73 -10.59 238.34  -5.00 1.00522426511184   0.4348158   0.0000 /?   0.0000
 2016-Apr-23 00:00 02 03 20.81 +12 31 34.0 -26.73 -10.59 225.13  -4.91 1.00549551262750   0.4338950   0.0000 /?   0.0000
 2016-Apr-24 00:00 02 07 06.19 +12 51 25.8 -26.73 -10.59 211.92  -4.82 1.00576630269900   0.4328018   0.0000 /?   0.0000
$$EOE